{"fetched_at":"2026-07-21T17:53:21.790Z","source":"https://celestrak.org/NORAD/elements/gp.php?NAME=CENTAURI&FORMAT=JSON","constellation":"myriota","records":[{"OBJECT_NAME":"CENTAURI-1","OBJECT_ID":"2018-099BD","EPOCH":"2026-07-21T02:54:07.548480","CLASSIFICATION_TYPE":"U","MEAN_MOTION":15.16660425,"ECCENTRICITY":0.00135003,"INCLINATION":97.4199,"RA_OF_ASC_NODE":253.1146,"ARG_OF_PERICENTER":203.2994,"MEAN_ANOMALY":156.7629,"EPHEMERIS_TYPE":0,"NORAD_CAT_ID":43809,"ELEMENT_SET_NO":999,"REV_AT_EPOCH":41764,"BSTAR":0.00018575754,"MEAN_MOTION_DOT":0.00003576,"MEAN_MOTION_DDOT":0},{"OBJECT_NAME":"CENTAURI-6","OBJECT_ID":"2024-066K","EPOCH":"2026-07-21T00:45:58.166208","CLASSIFICATION_TYPE":"U","MEAN_MOTION":15.06069022,"ECCENTRICITY":0.00017777,"INCLINATION":45.6066,"RA_OF_ASC_NODE":77.7031,"ARG_OF_PERICENTER":261.1794,"MEAN_ANOMALY":98.8889,"EPHEMERIS_TYPE":0,"NORAD_CAT_ID":59451,"ELEMENT_SET_NO":999,"REV_AT_EPOCH":12522,"BSTAR":0.00023616379,"MEAN_MOTION_DOT":0.00003257,"MEAN_MOTION_DDOT":0},{"OBJECT_NAME":"CENTAURI-7","OBJECT_ID":"2025-009DD","EPOCH":"2026-07-21T04:43:16.074912","CLASSIFICATION_TYPE":"U","MEAN_MOTION":14.97993327,"ECCENTRICITY":0.00023663,"INCLINATION":97.7089,"RA_OF_ASC_NODE":282.0427,"ARG_OF_PERICENTER":93.5092,"MEAN_ANOMALY":266.6401,"EPHEMERIS_TYPE":0,"NORAD_CAT_ID":62708,"ELEMENT_SET_NO":999,"REV_AT_EPOCH":8255,"BSTAR":0.00012809093,"MEAN_MOTION_DOT":0.00001454,"MEAN_MOTION_DDOT":0},{"OBJECT_NAME":"CENTAURI-8","OBJECT_ID":"2025-009DK","EPOCH":"2026-07-21T03:48:39.422304","CLASSIFICATION_TYPE":"U","MEAN_MOTION":14.97948595,"ECCENTRICITY":0.00025245,"INCLINATION":97.7034,"RA_OF_ASC_NODE":281.8213,"ARG_OF_PERICENTER":74.8993,"MEAN_ANOMALY":285.2508,"EPHEMERIS_TYPE":0,"NORAD_CAT_ID":62714,"ELEMENT_SET_NO":999,"REV_AT_EPOCH":8256,"BSTAR":0.00019352776,"MEAN_MOTION_DOT":0.00002224,"MEAN_MOTION_DDOT":0}]}
