CENTAURI-1              
1 43809U 18099BD  26202.12092070  .00003576  00000+0  18576-3 0  9994
2 43809  97.4199 253.1146 0013500 203.2994 156.7629 15.16660425417649
CENTAURI-6              
1 59451U 24066K   26202.03192322  .00003257  00000+0  23616-3 0  9993
2 59451  45.6066  77.7031 0001777 261.1794  98.8889 15.06069022125223
CENTAURI-7              
1 62708U 25009DD  26202.19671383  .00001454  00000+0  12809-3 0  9995
2 62708  97.7089 282.0427 0002366  93.5092 266.6401 14.97993327 82554
CENTAURI-8              
1 62714U 25009DK  26202.15878961  .00002224  00000+0  19353-3 0  9996
2 62714  97.7034 281.8213 0002524  74.8993 285.2508 14.97948595 82562
